INSERT INTO `tles` (`id`, `name`, `satellite_number`, `classification`, `launch_year`, `launch_number`, `launch_piece`, `epoch_year`, `epoch`, `ftd_mm_d2`, `std_mm_d6`, `bstar_drag`, `element_number`, `checksum_l1`, `inclination`, `right_ascension`, `eccentricity`, `perigee`, `mean_anomaly`, `mean_motion`, `revs`, `checksum_l2`, `created_on`, `raw_l1`, `raw_l2`) VALUES
(1, 'DTUSAT', 27842, 'U', 3, 31, 'C', 12, '193.01231782', '.00000132', '00000-0', '80605-4', 442, 2, '98.6954', '201.4704', '0009709', '125.8026', '234.4054', '14.21302845', 46839, 5, '2012-07-11 17:35:17', '1 27842U 03031C   12193.01231782  .00000132  00000-0  80605-4 0  4422', '2 27842  98.6954 201.4704 0009709 125.8026 234.4054 14.21302845468395'),
(2, 'CUTE-1 (CO-55)', 27844, 'U', 3, 31, 'E', 12, '193.07268672', '.00000162', '00000-0', '94792-4', 415, 3, '98.7022', '201.1032', '0009972', '148.6275', '211.5512', '14.21039896', 46828, 2, '2012-07-11 17:35:17', '1 27844U 03031E   12193.07268672  .00000162  00000-0  94792-4 0  4153', '2 27844  98.7022 201.1032 0009972 148.6275 211.5512 14.21039896468282'),
(3, 'QUAKESAT', 27845, 'U', 3, 31, 'F', 12, '192.50880204', '.00000220', '00000-0', '12198-3', 453, 8, '98.7105', '200.3884', '0008642', '168.2400', '191.8980', '14.20771059', 46807, 1, '2012-07-11 17:35:17', '1 27845U 03031F   12192.50880204  .00000220  00000-0  12198-3 0  4538', '2 27845  98.7105 200.3884 0008642 168.2400 191.8980 14.20771059468071'),
(4, 'AAU CUBESAT', 27846, 'U', 3, 31, 'G', 12, '192.23852538', '.00000122', '00000-0', '76139-4', 324, 2, '98.6948', '200.6974', '0009785', '126.7743', '233.4336', '14.21300723', 46828, 5, '2012-07-11 17:35:17', '1 27846U 03031G   12192.23852538  .00000122  00000-0  76139-4 0  3242', '2 27846  98.6948 200.6974 0009785 126.7743 233.4336 14.21300723468285'),
(5, 'CANX-1', 27847, 'U', 3, 31, 'H', 12, '192.96967716', '.00000151', '00000-0', '89052-4', 328, 2, '98.6933', '201.3887', '0009935', '125.2646', '234.9468', '14.21272085', 46833, 1, '2012-07-11 17:35:17', '1 27847U 03031H   12192.96967716  .00000151  00000-0  89052-4 0  3282', '2 27847  98.6933 201.3887 0009935 125.2646 234.9468 14.21272085468331'),
(6, 'CUBESAT XI-IV (CO-57)', 27848, 'U', 3, 31, 'J', 12, '193.01009847', '.00000141', '00000-0', '85683-4', 364, 7, '98.7105', '200.3855', '0009868', '153.1397', '207.0302', '14.20789551', 46821, 1, '2012-07-11 17:35:17', '1 27848U 03031J   12193.01009847  .00000141  00000-0  85683-4 0  3647', '2 27848  98.7105 200.3855 0009868 153.1397 207.0302 14.20789551468211'),
(7, 'UWE-1', 28892, 'U', 5, 43, 'C', 12, '192.57019916', '.00000555', '00000-0', '12288-3', 267, 1, '97.9093', '56.5958', '0018380', '76.4033', '283.9221', '14.60645516', 35718, 8, '2012-07-11 17:35:17', '1 28892U 05043C   12192.57019916  .00000555  00000-0  12288-3 0  2671', '2 28892  97.9093  56.5958 0018380  76.4033 283.9221 14.60645516357188'),
(8, 'CUBESAT XI-V (CO-58)', 28895, 'U', 5, 43, 'F', 12, '192.57969658', '.00000628', '00000-0', '13769-3', 222, 8, '97.9092', '57.8209', '0019075', '79.6355', '280.7046', '14.60669230', 35707, 4, '2012-07-11 17:35:17', '1 28895U 05043F   12192.57969658  .00000628  00000-0  13769-3 0  2228', '2 28895  97.9092  57.8209 0019075  79.6355 280.7046 14.60669230357074'),
(9, 'NCUBE-2', 28897, 'U', 5, 43, 'H', 12, '192.82849623', '.00000529', '00000-0', '11696-3', 796, 0, '97.9132', '57.9666', '0018478', '76.2115', '284.1181', '14.60907259', 34942, 6, '2012-07-11 17:35:17', '1 28897U 05043H   12192.82849623  .00000529  00000-0  11696-3 0  7960', '2 28897  97.9132  57.9666 0018478  76.2115 284.1181 14.60907259349426'),
(10, 'CSTB1', 31122, 'U', 7, 12, 'F', 12, '192.84964411', '.00001069', '00000-0', '23931-3', 561, 3, '97.8652', '208.4493', '0084509', '22.0108', '338.4696', '14.56404875', 27804, 1, '2012-07-11 17:35:17', '1 31122U 07012F   12192.84964411  .00001069  00000-0  23931-3 0  5613', '2 31122  97.8652 208.4493 0084509  22.0108 338.4696 14.56404875278041'),
(11, 'MAST', 31126, 'U', 7, 12, 'K', 12, '193.03050763', '.00000719', '00000-0', '17016-3', 501, 7, '97.8738', '202.7360', '0094660', '36.9035', '323.8620', '14.54192553', 27773, 7, '2012-07-11 17:35:17', '1 31126U 07012K   12193.03050763  .00000719  00000-0  17016-3 0  5017', '2 31126  97.8738 202.7360 0094660  36.9035 323.8620 14.54192553277737'),
(12, 'LIBERTAD-1', 31128, 'U', 7, 12, 'M', 12, '192.49925697', '-.00000045', '00000-0', '00000+0', 570, 5, '97.8834', '198.5112', '0102626', '51.8462', '309.1954', '14.52908536', 27736, 5, '2012-07-11 17:35:17', '1 31128U 07012M   12192.49925697 -.00000045  00000-0  00000+0 0  5705', '2 31128  97.8834 198.5112 0102626  51.8462 309.1954 14.52908536277365'),
(13, 'POLYSAT CP3', 31129, 'U', 7, 12, 'N', 12, '192.01293760', '.00000765', '00000-0', '18287-3', 209, 0, '97.8818', '198.4441', '0101979', '52.6433', '308.4009', '14.53113196', 27729, 5, '2012-07-11 17:35:17', '1 31129U 07012N   12192.01293760  .00000765  00000-0  18287-3 0  2090', '2 31129  97.8818 198.4441 0101979  52.6433 308.4009 14.53113196277295'),
(14, 'CAPE1', 31130, 'U', 7, 12, 'P', 12, '192.46665646', '.00000836', '00000-0', '19937-3', 512, 6, '97.8822', '198.5729', '0102401', '51.8553', '309.1838', '14.52979354', 27715, 5, '2012-07-11 17:35:17', '1 31130U 07012P   12192.46665646  .00000836  00000-0  19937-3 0  5126', '2 31130  97.8822 198.5729 0102401  51.8553 309.1838 14.52979354277155'),
(15, 'POLYSAT CP4', 31132, 'U', 7, 12, 'Q', 12, '193.02883352', '.00000800', '00000-0', '18291-3', 518, 6, '97.8643', '207.8792', '0085183', '21.2486', '339.2218', '14.56038109', 27792, 4, '2012-07-11 17:35:17', '1 31132U 07012Q   12193.02883352  .00000800  00000-0  18291-3 0  5186', '2 31132  97.8643 207.8792 0085183  21.2486 339.2218 14.56038109277924'),
(16, 'NTS (CANX-6)', 32784, 'U', 8, 21, 'B', 12, '192.68492201', '.00001208', '00000-0', '15711-3', 356, 8, '97.7976', '252.1945', '0015318', '347.5217', '12.5626', '14.82389363', 22717, 4, '2012-07-11 17:35:17', '1 32784U 08021B   12192.68492201  .00001208  00000-0  15711-3 0  3568', '2 32784  97.7976 252.1945 0015318 347.5217  12.5626 14.82389363227174'),
(17, 'CUTE-1.7+APD II (CO-65)', 32785, 'U', 8, 21, 'C', 12, '193.06184309', '.00001131', '00000-0', '14521-3', 357, 3, '97.7983', '253.5483', '0014496', '349.0939', '10.9975', '14.83042983', 22730, 8, '2012-07-11 17:35:17', '1 32785U 08021C   12193.06184309  .00001131  00000-0  14521-3 0  3573', '2 32785  97.7983 253.5483 0014496 349.0939  10.9975 14.83042983227308'),
(18, 'COMPASS-1', 32787, 'U', 8, 21, 'E', 12, '192.19567406', '.00001950', '00000-0', '23964-3', 350, 4, '97.7982', '253.0218', '0014831', '349.8537', '10.2452', '14.84092127', 22722, 5, '2012-07-11 17:35:17', '1 32787U 08021E   12192.19567406  .00001950  00000-0  23964-3 0  3504', '2 32787  97.7982 253.0218 0014831 349.8537  10.2452 14.84092127227225'),
(19, 'AAUSAT-II', 32788, 'U', 8, 21, 'F', 12, '193.17136892', '.00001828', '00000-0', '22328-3', 343, 4, '97.7996', '254.3712', '0014488', '347.9483', '12.1404', '14.84425202', 22739, 1, '2012-07-11 17:35:17', '1 32788U 08021F   12193.17136892  .00001828  00000-0  22328-3 0  3434', '2 32788  97.7996 254.3712 0014488 347.9483  12.1404 14.84425202227391'),
(20, 'DELFI-C3 (DO-64)', 32789, 'U', 8, 21, 'G', 12, '192.25159134', '.00002987', '00000-0', '34762-3', 358, 5, '97.8107', '255.5806', '0014100', '346.8179', '13.2685', '14.85969145', 22730, 9, '2012-07-11 17:35:17', '1 32789U 08021G   12192.25159134  .00002987  00000-0  34762-3 0  3585', '2 32789  97.8107 255.5806 0014100 346.8179  13.2685 14.85969145227309'),
(21, 'CANX-2', 32790, 'U', 8, 21, 'H', 12, '192.83004548', '.00001176', '00000-0', '15119-3', 351, 6, '97.7956', '252.9908', '0015179', '349.8298', '10.2598', '14.82936748', 22724, 1, '2012-07-11 17:35:17', '1 32790U 08021H   12192.83004548  .00001176  00000-0  15119-3 0  3516', '2 32790  97.7956 252.9908 0015179 349.8298  10.2598 14.82936748227241'),
(22, 'SEEDS II (CO-66)', 32791, 'U', 8, 21, 'J', 12, '192.19445167', '.00001385', '00000-0', '17454-3', 341, 7, '97.7976', '252.7434', '0015748', '349.8006', '10.2944', '14.83492617', 22715, 3, '2012-07-11 17:35:17', '1 32791U 08021J   12192.19445167  .00001385  00000-0  17454-3 0  3417', '2 32791  97.7976 252.7434 0015748 349.8006  10.2944 14.83492617227153'),
(23, 'SWISSCUBE', 35932, 'U', 9, 51, 'B', 12, '192.95990335', '.00005326', '00000-0', '12986-2', 647, 9, '98.3431', '295.7484', '0007794', '37.3458', '322.7710', '14.53069533', 14831, 6, '2012-07-11 17:35:17', '1 35932U 09051B   12192.95990335  .00005326  00000-0  12986-2 0  6479', '2 35932  98.3431 295.7484 0007794  37.3458 322.7710 14.53069533148316'),
(24, 'BEESAT', 35933, 'U', 9, 51, 'C', 12, '193.20663050', '.00007942', '00000-0', '19109-2', 843, 8, '98.3435', '296.4245', '0007331', '59.9523', '300.2215', '14.53545727', 14840, 9, '2012-07-11 17:35:17', '1 35933U 09051C   12193.20663050  .00007942  00000-0  19109-2 0  8438', '2 35933  98.3435 296.4245 0007331  59.9523 300.2215 14.53545727148409'),
(25, 'UWE-2', 35934, 'U', 9, 51, 'D', 12, '192.79122927', '.00003355', '00000-0', '81574-3', 341, 8, '98.3388', '295.6264', '0008024', '51.7328', '308.4393', '14.53448616', 14834, 1, '2012-07-11 17:35:17', '1 35934U 09051D   12192.79122927  .00003355  00000-0  81574-3 0  3418', '2 35934  98.3388 295.6264 0008024  51.7328 308.4393 14.53448616148341'),
(26, 'ITUPSAT 1', 35935, 'U', 9, 51, 'E', 12, '192.98940373', '.00001963', '00000-0', '48744-3', 948, 1, '98.3460', '296.3704', '0008962', '43.7905', '316.3811', '14.52905059', 14830, 0, '2012-07-11 17:35:17', '1 35935U 09051E   12192.98940373  .00001963  00000-0  48744-3 0  9481', '2 35935  98.3460 296.3704 0008962  43.7905 316.3811 14.52905059148300'),
(27, 'TISAT 1', 36799, 'U', 10, 35, 'E', 12, '193.03947753', '.00001620', '00000-0', '21046-3', 143, 3, '98.0615', '269.5487', '0016464', '95.2489', '265.0627', '14.82031567', 10802, 0, '2012-07-11 17:35:17', '1 36799U 10035E   12193.03947753  .00001620  00000-0  21046-3 0  1433', '2 36799  98.0615 269.5487 0016464  95.2489 265.0627 14.82031567108020'),
(28, 'DICE-F', 37851, 'U', 11, 61, 'B', 12, '192.67170956', '.00001976', '00000-0', '16581-3', 225, 8, '101.7175', '243.6420', '0247880', '284.0206', '73.3547', '14.79902757', 3786, 4, '2012-07-11 17:35:17', '1 37851U 11061B   12192.67170956  .00001976  00000-0  16581-3 0  2258', '2 37851 101.7175 243.6420 0247880 284.0206  73.3547 14.79902757 37864'),
(29, 'DICE-Y', 37852, 'U', 11, 61, 'C', 12, '192.84904434', '.00002516', '00000-0', '20702-3', 227, 7, '101.7160', '243.9780', '0247034', '283.3293', '74.0477', '14.80177822', 3789, 2, '2012-07-11 17:35:17', '1 37852U 11061C   12192.84904434  .00002516  00000-0  20702-3 0  2277', '2 37852 101.7160 243.9780 0247034 283.3293  74.0477 14.80177822 37892'),
(30, 'RAX-2', 37853, 'U', 11, 61, 'D', 12, '192.16970479', '.00002324', '00000-0', '19258-3', 226, 5, '101.7120', '242.8223', '0246576', '285.4115', '71.9971', '14.80169403', 3779, 5, '2012-07-11 17:35:17', '1 37853U 11061D   12192.16970479  .00002324  00000-0  19258-3 0  2265', '2 37853 101.7120 242.8223 0246576 285.4115  71.9971 14.80169403 37795'),
(31, 'AUBIESAT-1', 37854, 'U', 11, 61, 'E', 12, '193.13206642', '.00002729', '00000-0', '22124-3', 228, 5, '101.7125', '244.5011', '0246845', '281.8103', '75.5508', '14.80571002', 3793, 5, '2012-07-11 17:35:17', '1 37854U 11061E   12193.13206642  .00002729  00000-0  22124-3 0  2285', '2 37854 101.7125 244.5011 0246845 281.8103  75.5508 14.80571002 37935'),
(32, 'M-CUBED & EXP-1 PRIME', 37855, 'U', 11, 61, 'F', 12, '192.87777928', '.00002278', '00000-0', '18685-3', 224, 8, '101.7145', '244.0810', '0247555', '282.7855', '74.5788', '14.80416184', 3789, 6, '2012-07-11 17:35:17', '1 37855U 11061F   12192.87777928  .00002278  00000-0  18685-3 0  2248', '2 37855 101.7145 244.0810 0247555 282.7855  74.5788 14.80416184 37896'),
(33, 'E-ST@R', 38079, 'U', 12, 6, 'C', 12, '192.62659578', '.00044473', '00000-0', '10725-2', 338, 5, '69.4940', '262.0653', '0739222', '218.3806', '136.2742', '14.16179177', 2090, 8, '2012-07-11 17:35:17', '1 38079U 12006C   12192.62659578  .00044473  00000-0  10725-2 0  3385', '2 38079  69.4940 262.0653 0739222 218.3806 136.2742 14.16179177 20908'),
(34, '2012-006D', 38080, 'U', 12, 6, 'D', 12, '193.20744611', '.00049748', '00000-0', '12148-2', 335, 3, '69.4881', '260.7344', '0738029', '217.8096', '137.0123', '14.16164042', 2098, 0, '2012-07-11 17:35:17', '1 38080U 12006D   12193.20744611  .00049748  00000-0  12148-2 0  3353', '2 38080  69.4881 260.7344 0738029 217.8096 137.0123 14.16164042 20980'),
(35, 'MASAT 1', 38081, 'U', 12, 6, 'E', 12, '192.30046712', '.00041562', '00000-0', '10074-2', 349, 8, '69.4821', '262.8876', '0739974', '218.8687', '135.6967', '14.15924750', 2085, 0, '2012-07-11 17:35:17', '1 38081U 12006E   12192.30046712  .00041562  00000-0  10074-2 0  3498', '2 38081  69.4821 262.8876 0739974 218.8687 135.6967 14.15924750 20850'),
(36, 'XATCOBEO', 38082, 'U', 12, 6, 'F', 12, '192.62776968', '.00055242', '00000-0', '13285-2', 382, 1, '69.4900', '261.6964', '0731550', '218.1027', '136.6520', '14.17843029', 2091, 1, '2012-07-11 17:35:17', '1 38082U 12006F   12192.62776968  .00055242  00000-0  13285-2 0  3821', '2 38082  69.4900 261.6964 0731550 218.1027 136.6520 14.17843029 20911'),
(37, '2012-006G', 38083, 'U', 12, 6, 'G', 12, '192.59070156', '.00049468', '00000-0', '12085-2', 417, 3, '69.4920', '261.9473', '0733776', '218.3094', '136.4142', '14.17061726', 2090, 3, '2012-07-11 17:35:17', '1 38083U 12006G   12192.59070156  .00049468  00000-0  12085-2 0  4173', '2 38083  69.4920 261.9473 0733776 218.3094 136.4142 14.17061726 20903'),
(38, '2012-006H', 38084, 'U', 12, 6, 'H', 12, '193.18742910', '.00047901', '00000-0', '11367-2', 356, 8, '69.4973', '261.0612', '0744007', '217.9393', '136.7593', '14.15475414', 2097, 5, '2012-07-11 17:35:17', '1 38084U 12006H   12193.18742910  .00047901  00000-0  11367-2 0  3568', '2 38084  69.4973 261.0612 0744007 217.9393 136.7593 14.15475414 20975'),
(39, '2012-006J', 38085, 'U', 12, 6, 'J', 12, '192.28108968', '.00040826', '00000-0', '97648-3', 310, 4, '69.4907', '263.1878', '0744957', '219.1695', '135.3349', '14.15134604', 2084, 6, '2012-07-11 17:35:17', '1 38085U 12006J   12192.28108968  .00040826  00000-0  97648-3 0  3104', '2 38085  69.4907 263.1878 0744957 219.1695 135.3349 14.15134604 20846');

